{"type": "FeatureCollection", "features": [ {"type": "Feature", "properties": {"norad_id": 45807, "name": "BEIDOU-3 G3 (C61)", "group": "gnss", "lat": -1.53658142064098, "lon": 17.06172641948063, "alt_km": 35759.727245437636, "timestamp": "2025-12-24T11:33:00.259296+00:00", "meta": {"OBJECT_NAME": "BEIDOU-3 G3 (C61)", "OBJECT_ID": "2020-040A", "EPOCH": "2025-12-23T22:13:07.225248", "MEAN_MOTION": 1.00268431, "ECCENTRICITY": 0.00065719, "INCLINATION": 2.0164, "RA_OF_ASC_NODE": 66.6762, "ARG_OF_PERICENTER": 309.0867, "MEAN_ANOMALY": 160.7733, "EPHEMERIS_TYPE": 0, "CLASSIFICATION_TYPE": "U", "NORAD_CAT_ID": 45807, "ELEMENT_SET_NO": 999, "REV_AT_EPOCH": 2031, "BSTAR": 0, "MEAN_MOTION_DOT": -3.33e-06, "MEAN_MOTION_DDOT": 0}, "tle": {"line1": "1 45807U 20040A   25357.92577807 -.00000333  00000+0  00000+0 0  9995", "line2": "2 45807   2.0164  66.6762 0006571 309.0867 160.7733  1.00268431 20312"}}, "geometry": {"type": "Point", "coordinates": [17.06172641948063, -1.53658142064098]}}, {"type": "Feature", "properties": {"norad_id": 45854, "name": "GPS BIII-3  (PRN 23)", "group": "gnss", "lat": -1.6941265478374312, "lon": -143.13555138506388, "alt_km": 20033.26382870511, "timestamp": "2025-12-24T11:33:00.259307+00:00", "meta": {"OBJECT_NAME": "GPS BIII-3  (PRN 23)", "OBJECT_ID": "2020-041A", "EPOCH": "2025-12-23T06:54:40.562208", "MEAN_MOTION": 2.00561768, "ECCENTRICITY": 0.00606476, "INCLINATION": 56.5539, "RA_OF_ASC_NODE": 35.7754, "ARG_OF_PERICENTER": 203.7047, "MEAN_ANOMALY": 196.9972, "EPHEMERIS_TYPE": 0, "CLASSIFICATION_TYPE": "U", "NORAD_CAT_ID": 45854, "ELEMENT_SET_NO": 999, "REV_AT_EPOCH": 4051, "BSTAR": 0, "MEAN_MOTION_DOT": -4.9e-07, "MEAN_MOTION_DDOT": 0}, "tle": {"line1": "1 45854U 20041A   25357.28796947 -.00000049  00000+0  00000+0 0  9999", "line2": "2 45854  56.5539  35.7754 0060647 203.7047 196.9972  2.00561768 40516"}}, "geometry": {"type": "Point", "coordinates": [-143.13555138506388, -1.6941265478374312]}}, {"type": "Feature", "properties": {"norad_id": 46114, "name": "GALAXY 30 (WAAS/PRN 135)", "group": "gnss", "lat": 0.00802691384454221, "lon": 141.47685750607363, "alt_km": 35792.102236682476, "timestamp": "2025-12-24T11:33:00.259322+00:00", "meta": {"OBJECT_NAME": "GALAXY 30 (WAAS/PRN 135)", "OBJECT_ID": "2020-056C", "EPOCH": "2025-12-23T22:48:33.829920", "MEAN_MOTION": 1.00270256, "ECCENTRICITY": 0.0002119, "INCLINATION": 0.0109, "RA_OF_ASC_NODE": 314.0178, "ARG_OF_PERICENTER": 316.2367, "MEAN_ANOMALY": 39.6172, "EPHEMERIS_TYPE": 0, "CLASSIFICATION_TYPE": "U", "NORAD_CAT_ID": 46114, "ELEMENT_SET_NO": 999, "REV_AT_EPOCH": 1953, "BSTAR": 0, "MEAN_MOTION_DOT": 5.8e-07, "MEAN_MOTION_DDOT": 0}, "tle": {"line1": "1 46114U 20056C   25357.95039155  .00000058  00000+0  00000+0 0  9999", "line2": "2 46114   0.0109 314.0178 0002119 316.2367  39.6172  1.00270256 19532"}}, "geometry": {"type": "Point", "coordinates": [141.47685750607363, 0.00802691384454221]}}, {"type": "Feature", "properties": {"norad_id": 46805, "name": "COSMOS 2547 (705K)", "group": "gnss", "lat": 62.29437872675247, "lon": -96.81570564165433, "alt_km": 19136.64431995903, "timestamp": "2025-12-24T11:33:00.259335+00:00", "meta": {"OBJECT_NAME": "COSMOS 2547 (705K)", "OBJECT_ID": "2020-075A", "EPOCH": "2025-12-22T23:18:06.838272", "MEAN_MOTION": 2.13100223, "ECCENTRICITY": 0.00061117, "INCLINATION": 64.5968, "RA_OF_ASC_NODE": 198.3547, "ARG_OF_PERICENTER": 227.5721, "MEAN_ANOMALY": 132.44, "EPHEMERIS_TYPE": 0, "CLASSIFICATION_TYPE": "U", "NORAD_CAT_ID": 46805, "ELEMENT_SET_NO": 999, "REV_AT_EPOCH": 4015, "BSTAR": 0, "MEAN_MOTION_DOT": 9.5e-07, "MEAN_MOTION_DDOT": 0}, "tle": {"line1": "1 46805U 20075A   25356.97091248  .00000095  00000+0  00000+0 0  9990", "line2": "2 46805  64.5968 198.3547 0006111 227.5721 132.4400  2.13100223 40153"}}, "geometry": {"type": "Point", "coordinates": [-96.81570564165433, 62.29437872675247]}}, {"type": "Feature", "properties": {"norad_id": 46826, "name": "GPS BIII-4  (PRN 14)", "group": "gnss", "lat": 21.548566149641207, "lon": 21.202521787860526, "alt_km": 20069.45990170129, "timestamp": "2025-12-24T11:33:00.259346+00:00", "meta": {"OBJECT_NAME": "GPS BIII-4  (PRN 14)", "OBJECT_ID": "2020-078A", "EPOCH": "2025-12-16T01:06:13.902336", "MEAN_MOTION": 2.00566891, "ECCENTRICITY": 0.00647535, "INCLINATION": 54.0144, "RA_OF_ASC_NODE": 218.2068, "ARG_OF_PERICENTER": 203.3802, "MEAN_ANOMALY": 339.3962, "EPHEMERIS_TYPE": 0, "CLASSIFICATION_TYPE": "U", "NORAD_CAT_ID": 46826, "ELEMENT_SET_NO": 999, "REV_AT_EPOCH": 3783, "BSTAR": 0, "MEAN_MOTION_DOT": 6.7e-07, "MEAN_MOTION_DDOT": 0}, "tle": {"line1": "1 46826U 20078A   25350.04599424  .00000067  00000+0  00000+0 0  9996", "line2": "2 46826  54.0144 218.2068 0064753 203.3802 339.3962  2.00566891 37839"}}, "geometry": {"type": "Point", "coordinates": [21.202521787860526, 21.548566149641207]}}, {"type": "Feature", "properties": {"norad_id": 48859, "name": "GPS BIII-5  (PRN 11)", "group": "gnss", "lat": -17.46778760632385, "lon": -33.14387377847026, "alt_km": 20202.05511433326, "timestamp": "2025-12-24T11:33:00.259361+00:00", "meta": {"OBJECT_NAME": "GPS BIII-5  (PRN 11)", "OBJECT_ID": "2021-054A", "EPOCH": "2025-12-08T04:14:32.423424", "MEAN_MOTION": 2.00553627, "ECCENTRICITY": 0.0024678, "INCLINATION": 55.2581, "RA_OF_ASC_NODE": 340.1367, "ARG_OF_PERICENTER": 233.3993, "MEAN_ANOMALY": 212.8594, "EPHEMERIS_TYPE": 0, "CLASSIFICATION_TYPE": "U", "NORAD_CAT_ID": 48859, "ELEMENT_SET_NO": 999, "REV_AT_EPOCH": 3292, "BSTAR": 0, "MEAN_MOTION_DOT": -8.6e-07, "MEAN_MOTION_DDOT": 0}, "tle": {"line1": "1 48859U 21054A   25342.17676416 -.00000086  00000+0  00000+0 0  9993", "line2": "2 48859  55.2581 340.1367 0024678 233.3993 212.8594  2.00553627 32922"}}, "geometry": {"type": "Point", "coordinates": [-33.14387377847026, -17.46778760632385]}}, {"type": "Feature", "properties": {"norad_id": 49336, "name": "QZS-1R (QZSS/PRN 196)", "group": "gnss", "lat": -20.217988728074747, "lon": 53.096846515876045, "alt_km": 33759.01100503873, "timestamp": "2025-12-24T11:33:00.259373+00:00", "meta": {"OBJECT_NAME": "QZS-1R (QZSS/PRN 196)", "OBJECT_ID": "2021-096A", "EPOCH": "2025-12-23T14:03:59.721696", "MEAN_MOTION": 1.00253792, "ECCENTRICITY": 0.07574903, "INCLINATION": 37.0985, "RA_OF_ASC_NODE": 82.1998, "ARG_OF_PERICENTER": 271.5244, "MEAN_ANOMALY": 83.7292, "EPHEMERIS_TYPE": 0, "CLASSIFICATION_TYPE": "U", "NORAD_CAT_ID": 49336, "ELEMENT_SET_NO": 999, "REV_AT_EPOCH": 1525, "BSTAR": 0, "MEAN_MOTION_DOT": -2.42e-06, "MEAN_MOTION_DDOT": 0}, "tle": {"line1": "1 49336U 21096A   25357.58610789 -.00000242  00000+0  00000+0 0  9996", "line2": "2 49336  37.0985  82.1998 0757490 271.5244  83.7292  1.00253792 15256"}}, "geometry": {"type": "Point", "coordinates": [53.096846515876045, -20.217988728074747]}}, {"type": "Feature", "properties": {"norad_id": 49809, "name": "GSAT0223 (GALILEO 27)", "group": "gnss", "lat": 0.7990472283271293, "lon": 165.86963849373072, "alt_km": 23219.21609866545, "timestamp": "2025-12-24T11:33:00.259385+00:00", "meta": {"OBJECT_NAME": "GSAT0223 (GALILEO 27)", "OBJECT_ID": "2021-116A", "EPOCH": "2025-12-22T17:26:14.878176", "MEAN_MOTION": 1.70475871, "ECCENTRICITY": 0.000441, "INCLINATION": 57.2174, "RA_OF_ASC_NODE": 346.4438, "ARG_OF_PERICENTER": 255.815, "MEAN_ANOMALY": 286.3499, "EPHEMERIS_TYPE": 0, "CLASSIFICATION_TYPE": "U", "NORAD_CAT_ID": 49809, "ELEMENT_SET_NO": 999, "REV_AT_EPOCH": 2517, "BSTAR": 0, "MEAN_MOTION_DOT": -6.4e-07, "MEAN_MOTION_DDOT": 0}, "tle": {"line1": "1 49809U 21116A   25356.72656109 -.00000064  00000+0  00000+0 0  9997", "line2": "2 49809  57.2174 346.4438 0004410 255.8150 286.3499  1.70475871 25171"}}, "geometry": {"type": "Point", "coordinates": [165.86963849373072, 0.7990472283271293]}}, {"type": "Feature", "properties": {"norad_id": 49810, "name": "GSAT0224 (GALILEO 28)", "group": "gnss", "lat": -51.36304785220726, "lon": -67.3381356666995, "alt_km": 23218.10853831597, "timestamp": "2025-12-24T11:33:00.259396+00:00", "meta": {"OBJECT_NAME": "GSAT0224 (GALILEO 28)", "OBJECT_ID": "2021-116B", "EPOCH": "2025-12-23T03:00:59.528736", "MEAN_MOTION": 1.70475912, "ECCENTRICITY": 0.00037519, "INCLINATION": 57.2181, "RA_OF_ASC_NODE": 346.4317, "ARG_OF_PERICENTER": 260.8078, "MEAN_ANOMALY": 278.9053, "EPHEMERIS_TYPE": 0, "CLASSIFICATION_TYPE": "U", "NORAD_CAT_ID": 49810, "ELEMENT_SET_NO": 999, "REV_AT_EPOCH": 2520, "BSTAR": 0, "MEAN_MOTION_DOT": -6.3e-07, "MEAN_MOTION_DDOT": 0}, "tle": {"line1": "1 49810U 21116B   25357.12568899 -.00000063  00000+0  00000+0 0  9991", "line2": "2 49810  57.2181 346.4317 0003751 260.8078 278.9053  1.70475912 25202"}}, "geometry": {"type": "Point", "coordinates": [-67.3381356666995, -51.36304785220726]}}, {"type": "Feature", "properties": {"norad_id": 52984, "name": "COSMOS 2557 (706K)", "group": "gnss", "lat": -42.19307339503645, "lon": -65.11397919921252, "alt_km": 19106.20487771194, "timestamp": "2025-12-24T11:33:00.259410+00:00", "meta": {"OBJECT_NAME": "COSMOS 2557 (706K)", "OBJECT_ID": "2022-075A", "EPOCH": "2025-12-24T01:47:30.458112", "MEAN_MOTION": 2.13102043, "ECCENTRICITY": 0.0013531, "INCLINATION": 64.4034, "RA_OF_ASC_NODE": 320.6532, "ARG_OF_PERICENTER": 278.4294, "MEAN_ANOMALY": 81.4177, "EPHEMERIS_TYPE": 0, "CLASSIFICATION_TYPE": "U", "NORAD_CAT_ID": 52984, "ELEMENT_SET_NO": 999, "REV_AT_EPOCH": 2698, "BSTAR": 0, "MEAN_MOTION_DOT": -3.6e-07, "MEAN_MOTION_DDOT": 0}, "tle": {"line1": "1 52984U 22075A   25358.07465808 -.00000036  00000+0  00000+0 0  9993", "line2": "2 52984  64.4034 320.6532 0013531 278.4294  81.4177  2.13102043 26980"}}, "geometry": {"type": "Point", "coordinates": [-65.11397919921252, -42.19307339503645]}}]}